{
    "links": {
        "self": "http://www.neowsapp.com/rest/v1/neo/3471218?api_key=iIulBulltgU6a56xZRHN4H3l9WmuAYTsLGpBGhQ2"
    },
    "id": "3471218",
    "neo_reference_id": "3471218",
    "name": "(2009 TT)",
    "designation": "2009 TT",
    "nasa_jpl_url": "http://ssd.jpl.nasa.gov/sbdb.cgi?sstr=3471218",
    "absolute_magnitude_h": 25.1,
    "estimated_diameter": {
        "kilometers": {
            "estimated_diameter_min": 0.0253837029,
            "estimated_diameter_max": 0.0567596853
        },
        "meters": {
            "estimated_diameter_min": 25.3837029364,
            "estimated_diameter_max": 56.7596852866
        },
        "miles": {
            "estimated_diameter_min": 0.0157726969,
            "estimated_diameter_max": 0.0352688224
        },
        "feet": {
            "estimated_diameter_min": 83.279867942,
            "estimated_diameter_max": 186.2194458756
        }
    },
    "is_potentially_hazardous_asteroid": false,
    "close_approach_data": [
        {
            "close_approach_date": "2009-10-15",
            "close_approach_date_full": "2009-Oct-15 08:29",
            "epoch_date_close_approach": 1255595340000,
            "relative_velocity": {
                "kilometers_per_second": "10.423206151",
                "kilometers_per_hour": "37523.542143532",
                "miles_per_hour": "23315.6698391296"
            },
            "miss_distance": {
                "astronomical": "0.0306203526",
                "lunar": "11.9113171614",
                "kilometers": "4580739.527608962",
                "miles": "2846339.5559371956"
            },
            "orbiting_body": "Earth"
        },
        {
            "close_approach_date": "2091-09-26",
            "close_approach_date_full": "2091-Sep-26 04:12",
            "epoch_date_close_approach": 3841618320000,
            "relative_velocity": {
                "kilometers_per_second": "15.1322764902",
                "kilometers_per_hour": "54476.1953645616",
                "miles_per_hour": "33849.38928083"
            },
            "miss_distance": {
                "astronomical": "0.2179029983",
                "lunar": "84.7642663387",
                "kilometers": "32597824.412293621",
                "miles": "20255348.8367931298"
            },
            "orbiting_body": "Earth"
        }
    ],
    "orbital_data": {
        "orbit_id": "13",
        "orbit_determination_date": "2017-04-06 08:59:41",
        "first_observation_date": "2009-10-10",
        "last_observation_date": "2009-10-18",
        "data_arc_in_days": 8,
        "observations_used": 60,
        "orbit_uncertainty": "7",
        "minimum_orbit_intersection": ".0377945",
        "jupiter_tisserand_invariant": "3.309",
        "epoch_osculation": "2459000.5",
        "eccentricity": ".5680473756576498",
        "semi_major_axis": "2.334656053113199",
        "inclination": "11.41811374376474",
        "ascending_node_longitude": "199.5688387210888",
        "orbital_period": "1302.965118416143",
        "perihelion_distance": "1.008460809079",
        "perihelion_argument": "204.2511968941497",
        "aphelion_distance": "3.660851297147399",
        "perihelion_time": "2459041.345996168024",
        "mean_anomaly": "348.7145416153863",
        "mean_motion": ".2762928914302851",
        "equinox": "J2000",
        "orbit_class": {
            "orbit_class_type": "APO",
            "orbit_class_description": "Near-Earth asteroid orbits which cross the Earth’s orbit similar to that of 1862 Apollo",
            "orbit_class_range": "a (semi-major axis) > 1.0 AU; q (perihelion) < 1.017 AU"
        }
    },
    "is_sentry_object": false
}